start=new Date('2022-07-06T00:00:00.000Z').valueOf();
sats=[{"MEAN_ANOMALY":"264.6306","OBJECT_ID":"2020-035T","ECCENTRICITY":"0.00013040","OBJECT_TYPE":"PAYLOAD","RCS_SIZE":"LARGE","EPHEMERIS_TYPE":"0","PERIAPSIS":"546.301","MEAN_MOTION":"15.06403101","CLASSIFICATION_TYPE":"U","MEAN_MOTION_DDOT":"0.0000000000000","ARG_OF_PERICENTER":"95.4832","REF_FRAME":"TEME","LAUNCH_DATE":"2020-06-04","APOAPSIS":"548.107","OBJECT_NAME":"STARLINK-1457","SITE":"AFETR","COUNTRY_CODE":"US","PERIOD":"95.592","TLE_LINE2":"2 45674  53.0562 335.6159 0001304  95.4832 264.6306 15.06403101115915","DECAY_DATE":null,"INCLINATION":"53.0562","REV_AT_EPOCH":"11591","ELEMENT_SET_NO":"999","TLE_LINE1":"1 45674U 20035T   22186.68136336  .00000846  00000-0  75699-4 0  9999","TIME_SYSTEM":"UTC","GP_ID":"207481460","SEMIMAJOR_AXIS":"6925.339","BSTAR":"0.00007569900000","EPOCH":"2022-07-05T16:21:09.794304","MEAN_MOTION_DOT":"0.00000846","FILE":"3508215","NORAD_CAT_ID":"45674","RA_OF_ASC_NODE":"335.6159","CENTER_NAME":"EARTH","MEAN_ELEMENT_THEORY":"SGP4"},{"MEAN_MOTION":"15.06397535","MEAN_MOTION_DDOT":"0.0000000000000","CLASSIFICATION_TYPE":"U","ARG_OF_PERICENTER":"70.9137","REF_FRAME":"TEME","LAUNCH_DATE":"2020-06-04","SITE":"AFETR","OBJECT_NAME":"STARLINK-1458","APOAPSIS":"548.218","COUNTRY_CODE":"US","MEAN_ANOMALY":"289.2008","OBJECT_ID":"2020-035U","ECCENTRICITY":"0.00014390","OBJECT_TYPE":"PAYLOAD","RCS_SIZE":"LARGE","PERIAPSIS":"546.225","EPHEMERIS_TYPE":"0","SEMIMAJOR_AXIS":"6925.356","MEAN_MOTION_DOT":"-0.00000818","BSTAR":"-0.00003599800000","EPOCH":"2022-07-05T17:40:47.008416","FILE":"3508215","NORAD_CAT_ID":"45675","RA_OF_ASC_NODE":"335.3710","CENTER_NAME":"EARTH","MEAN_ELEMENT_THEORY":"SGP4","TLE_LINE2":"2 45675  53.0573 335.3710 0001439  70.9137 289.2008 15.06397535115907","DECAY_DATE":null,"PERIOD":"95.592","INCLINATION":"53.0573","ELEMENT_SET_NO":"999","REV_AT_EPOCH":"11590","TLE_LINE1":"1 45675U 20035U   22186.73665519 -.00000818  00000-0 -35998-4 0  9995","TIME_SYSTEM":"UTC","GP_ID":"207481245"},{"LAUNCH_DATE":"2020-06-04","SITE":"AFETR","APOAPSIS":"548.081","OBJECT_NAME":"STARLINK-1460","COUNTRY_CODE":"US","MEAN_MOTION":"15.06398633","MEAN_MOTION_DDOT":"0.0000000000000","CLASSIFICATION_TYPE":"U","ARG_OF_PERICENTER":"79.2385","REF_FRAME":"TEME","PERIAPSIS":"546.354","EPHEMERIS_TYPE":"0","MEAN_ANOMALY":"280.8745","OBJECT_ID":"2020-035V","ECCENTRICITY":"0.00012470","OBJECT_TYPE":"PAYLOAD","RCS_SIZE":"LARGE","FILE":"3508171","NORAD_CAT_ID":"45676","RA_OF_ASC_NODE":"336.1092","MEAN_ELEMENT_THEORY":"SGP4","CENTER_NAME":"EARTH","SEMIMAJOR_AXIS":"6925.353","MEAN_MOTION_DOT":"-0.00000114","BSTAR":"0.00001121300000","EPOCH":"2022-07-05T13:47:14.597664","TIME_SYSTEM":"UTC","TLE_LINE1":"1 45676U 20035V   22186.57447451 -.00000114  00000-0  11213-4 0  9993","GP_ID":"207473688","TLE_LINE2":"2 45676  53.0551 336.1092 0001247  79.2385 280.8745 15.06398633115882","DECAY_DATE":null,"PERIOD":"95.592","INCLINATION":"53.0551","ELEMENT_SET_NO":"999","REV_AT_EPOCH":"11588"},{"SEMIMAJOR_AXIS":"6925.385","BSTAR":"-0.00005035000000","EPOCH":"2022-07-05T17:14:15.666432","MEAN_MOTION_DOT":"-0.00001031","RA_OF_ASC_NODE":"335.4436","MEAN_ELEMENT_THEORY":"SGP4","CENTER_NAME":"EARTH","FILE":"3508197","NORAD_CAT_ID":"45677","INCLINATION":"53.0553","REV_AT_EPOCH":"11590","ELEMENT_SET_NO":"999","PERIOD":"95.593","DECAY_DATE":null,"TLE_LINE2":"2 45677  53.0553 335.4436 0001370  81.7839 278.3305 15.06388107115900","GP_ID":"207480747","TIME_SYSTEM":"UTC","TLE_LINE1":"1 45677U 20035W   22186.71823688 -.00001031  00000-0 -50350-4 0  9995","ARG_OF_PERICENTER":"81.7839","REF_FRAME":"TEME","MEAN_MOTION":"15.06388107","CLASSIFICATION_TYPE":"U","MEAN_MOTION_DDOT":"0.0000000000000","APOAPSIS":"548.199","OBJECT_NAME":"STARLINK-1392","SITE":"AFETR","COUNTRY_CODE":"US","LAUNCH_DATE":"2020-06-04","OBJECT_TYPE":"PAYLOAD","RCS_SIZE":"LARGE","MEAN_ANOMALY":"278.3305","OBJECT_ID":"2020-035W","ECCENTRICITY":"0.00013700","EPHEMERIS_TYPE":"0","PERIAPSIS":"546.301"},{"MEAN_MOTION_DOT":"0.00000933","BSTAR":"0.00008154100000","EPOCH":"2022-07-05T17:04:56.782848","SEMIMAJOR_AXIS":"6925.338","RA_OF_ASC_NODE":"325.4735","CENTER_NAME":"EARTH","MEAN_ELEMENT_THEORY":"SGP4","NORAD_CAT_ID":"45678","FILE":"3508209","ELEMENT_SET_NO":"999","REV_AT_EPOCH":"11604","INCLINATION":"53.0573","TLE_LINE2":"2 45678  53.0573 325.4735 0001466  76.4730 283.6423 15.06403583116043","DECAY_DATE":null,"PERIOD":"95.592","GP_ID":"207481182","TLE_LINE1":"1 45678U 20035X   22186.71176832  .00000933  00000-0  81541-4 0  9992","TIME_SYSTEM":"UTC","ARG_OF_PERICENTER":"76.4730","REF_FRAME":"TEME","MEAN_MOTION_DDOT":"0.0000000000000","CLASSIFICATION_TYPE":"U","MEAN_MOTION":"15.06403583","COUNTRY_CODE":"US","SITE":"AFETR","APOAPSIS":"548.218","OBJECT_NAME":"STARLINK-1393","LAUNCH_DATE":"2020-06-04","RCS_SIZE":"LARGE","OBJECT_TYPE":"PAYLOAD","ECCENTRICITY":"0.00014660","OBJECT_ID":"2020-035X","MEAN_ANOMALY":"283.6423","PERIAPSIS":"546.187","EPHEMERIS_TYPE":"0"},{"TLE_LINE1":"1 45679U 20035Y   22186.71546304 -.00000046  00000-0  15781-4 0  9997","TIME_SYSTEM":"UTC","GP_ID":"207481099","PERIOD":"95.592","TLE_LINE2":"2 45679  53.0548 325.4761 0001281  86.9106 273.2029 15.06401037116053","DECAY_DATE":null,"INCLINATION":"53.0548","REV_AT_EPOCH":"11605","ELEMENT_SET_NO":"999","FILE":"3508209","NORAD_CAT_ID":"45679","CENTER_NAME":"EARTH","RA_OF_ASC_NODE":"325.4761","MEAN_ELEMENT_THEORY":"SGP4","SEMIMAJOR_AXIS":"6925.345","BSTAR":"0.00001578100000","EPOCH":"2022-07-05T17:10:16.006656","MEAN_MOTION_DOT":"-0.00000046","EPHEMERIS_TYPE":"0","PERIAPSIS":"546.323","MEAN_ANOMALY":"273.2029","ECCENTRICITY":"0.00012810","OBJECT_ID":"2020-035Y","OBJECT_TYPE":"PAYLOAD","RCS_SIZE":"LARGE","LAUNCH_DATE":"2020-06-04","OBJECT_NAME":"STARLINK-1394","APOAPSIS":"548.098","SITE":"AFETR","COUNTRY_CODE":"US","MEAN_MOTION":"15.06401037","CLASSIFICATION_TYPE":"U","MEAN_MOTION_DDOT":"0.0000000000000","ARG_OF_PERICENTER":"86.9106","REF_FRAME":"TEME"},{"COUNTRY_CODE":"US","SITE":"AFETR","APOAPSIS":"548.237","OBJECT_NAME":"STARLINK-1395","LAUNCH_DATE":"2020-06-04","ARG_OF_PERICENTER":"75.4140","REF_FRAME":"TEME","MEAN_MOTION_DDOT":"0.0000000000000","CLASSIFICATION_TYPE":"U","MEAN_MOTION":"15.06393333","PERIAPSIS":"546.231","EPHEMERIS_TYPE":"0","RCS_SIZE":"LARGE","OBJECT_TYPE":"PAYLOAD","OBJECT_ID":"2020-035Z","ECCENTRICITY":"0.00014480","MEAN_ANOMALY":"284.7009","MEAN_ELEMENT_THEORY":"SGP4","RA_OF_ASC_NODE":"326.9326","CENTER_NAME":"EARTH","NORAD_CAT_ID":"45680","FILE":"3508171","MEAN_MOTION_DOT":"-0.00000998","BSTAR":"-0.00004808900000","EPOCH":"2022-07-05T09:23:11.163552","SEMIMAJOR_AXIS":"6925.369","GP_ID":"207474189","TIME_SYSTEM":"UTC","TLE_LINE1":"1 45680U 20035Z   22186.39110143 -.00000998  00000-0 -48089-4 0  9995","ELEMENT_SET_NO":"999","REV_AT_EPOCH":"11639","INCLINATION":"53.0569","TLE_LINE2":"2 45680  53.0569 326.9326 0001448  75.4140 284.7009 15.06393333116398","DECAY_DATE":null,"PERIOD":"95.593"},{"COUNTRY_CODE":"US","SITE":"AFETR","OBJECT_NAME":"STARLINK-1396","APOAPSIS":"548.241","LAUNCH_DATE":"2020-06-04","ARG_OF_PERICENTER":"85.4378","REF_FRAME":"TEME","MEAN_MOTION_DDOT":"0.0000000000000","CLASSIFICATION_TYPE":"U","MEAN_MOTION":"15.06407328","PERIAPSIS":"546.141","EPHEMERIS_TYPE":"0","RCS_SIZE":"LARGE","OBJECT_TYPE":"PAYLOAD","OBJECT_ID":"2020-035AA","ECCENTRICITY":"0.00015160","MEAN_ANOMALY":"274.6784","CENTER_NAME":"EARTH","RA_OF_ASC_NODE":"325.4552","MEAN_ELEMENT_THEORY":"SGP4","NORAD_CAT_ID":"45681","FILE":"3508211","MEAN_MOTION_DOT":"-0.00000214","BSTAR":"0.00000456060000","EPOCH":"2022-07-05T17:15:33.250176","SEMIMAJOR_AXIS":"6925.326","GP_ID":"207481413","TLE_LINE1":"1 45681U 20035AA  22186.71913484 -.00000214  00000-0  45606-5 0  9994","TIME_SYSTEM":"UTC","ELEMENT_SET_NO":"999","REV_AT_EPOCH":"11604","INCLINATION":"53.0558","TLE_LINE2":"2 45681  53.0558 325.4552 0001516  85.4378 274.6784 15.06407328116042","DECAY_DATE":null,"PERIOD":"95.592"},{"REF_FRAME":"TEME","ARG_OF_PERICENTER":"82.6747","CLASSIFICATION_TYPE":"U","MEAN_MOTION_DDOT":"0.0000000000000","MEAN_MOTION":"15.06391803","COUNTRY_CODE":"US","APOAPSIS":"548.298","OBJECT_NAME":"STARLINK-1397","SITE":"AFETR","LAUNCH_DATE":"2020-06-04","RCS_SIZE":"LARGE","OBJECT_TYPE":"PAYLOAD","ECCENTRICITY":"0.00015290","OBJECT_ID":"2020-035AB","MEAN_ANOMALY":"277.4416","EPHEMERIS_TYPE":"0","PERIAPSIS":"546.180","BSTAR":"-0.00004796600000","EPOCH":"2022-07-05T12:39:34.755840","MEAN_MOTION_DOT":"-0.00000996","SEMIMAJOR_AXIS":"6925.374","RA_OF_ASC_NODE":"326.2978","MEAN_ELEMENT_THEORY":"SGP4","CENTER_NAME":"EARTH","NORAD_CAT_ID":"45682","FILE":"3508171","REV_AT_EPOCH":"11641","ELEMENT_SET_NO":"999","INCLINATION":"53.0570","PERIOD":"95.593","TLE_LINE2":"2 45682  53.0570 326.2978 0001529  82.6747 277.4416 15.06391803116415","DECAY_DATE":null,"GP_ID":"207474690","TLE_LINE1":"1 45682U 20035AB  22186.52748560 -.00000996  00000-0 -47966-4 0  9993","TIME_SYSTEM":"UTC"},{"PERIAPSIS":"546.169","EPHEMERIS_TYPE":"0","MEAN_ANOMALY":"286.6419","ECCENTRICITY":"0.00014850","OBJECT_ID":"2020-035AC","OBJECT_TYPE":"PAYLOAD","RCS_SIZE":"LARGE","LAUNCH_DATE":"2020-06-04","SITE":"AFETR","APOAPSIS":"548.226","OBJECT_NAME":"STARLINK-1399","COUNTRY_CODE":"US","MEAN_MOTION":"15.06405119","MEAN_MOTION_DDOT":"0.0000000000000","CLASSIFICATION_TYPE":"U","REF_FRAME":"TEME","ARG_OF_PERICENTER":"73.4733","TLE_LINE1":"1 45683U 20035AC  22186.70808640 -.00000175  00000-0  71339-5 0  9990","TIME_SYSTEM":"UTC","GP_ID":"207481427","DECAY_DATE":null,"TLE_LINE2":"2 45683  53.0555 325.4974 0001485  73.4733 286.6419 15.06405119116040","PERIOD":"95.592","INCLINATION":"53.0555","ELEMENT_SET_NO":"999","REV_AT_EPOCH":"11604","FILE":"3508214","NORAD_CAT_ID":"45683","RA_OF_ASC_NODE":"325.4974","MEAN_ELEMENT_THEORY":"SGP4","CENTER_NAME":"EARTH","SEMIMAJOR_AXIS":"6925.333","MEAN_MOTION_DOT":"-0.00000175","EPOCH":"2022-07-05T16:59:38.664960","BSTAR":"0.00000713390000"}];
